[{"OBJECT_NAME":"SL-14 R/B","OBJECT_ID":"1986-006B","EPOCH":"2026-04-11T18:22:58.945728","MEAN_MOTION":14.86875871,"ECCENTRICITY":0.0076968,"INCLINATION":82.5276,"RA_OF_ASC_NODE":228.6039,"ARG_OF_PERICENTER":162.0121,"MEAN_ANOMALY":198.3849,"EPHEMERIS_TYPE":0,"CLASSIFICATION_TYPE":"U","NORAD_CAT_ID":16496,"ELEMENT_SET_NO":999,"REV_AT_EPOCH":15412,"BSTAR":7.5825e-5,"MEAN_MOTION_DOT":7.42e-6,"MEAN_MOTION_DDOT":0},{"OBJECT_NAME":"COSMOS 1743","OBJECT_ID":"1986-034A","EPOCH":"2026-04-11T20:51:50.868000","MEAN_MOTION":15.6163403,"ECCENTRICITY":0.000665,"INCLINATION":82.5305,"RA_OF_ASC_NODE":38.9322,"ARG_OF_PERICENTER":136.1873,"MEAN_ANOMALY":223.9913,"EPHEMERIS_TYPE":0,"CLASSIFICATION_TYPE":"U","NORAD_CAT_ID":16719,"ELEMENT_SET_NO":999,"REV_AT_EPOCH":18542,"BSTAR":0.00040816,"MEAN_MOTION_DOT":0.00035244,"MEAN_MOTION_DDOT":0},{"OBJECT_NAME":"SL-14 R/B","OBJECT_ID":"1986-046B","EPOCH":"2026-04-11T14:36:47.579328","MEAN_MOTION":14.85625403,"ECCENTRICITY":0.0024495,"INCLINATION":82.4828,"RA_OF_ASC_NODE":49.0736,"ARG_OF_PERICENTER":117.4106,"MEAN_ANOMALY":242.9606,"EPHEMERIS_TYPE":0,"CLASSIFICATION_TYPE":"U","NORAD_CAT_ID":16792,"ELEMENT_SET_NO":999,"REV_AT_EPOCH":13129,"BSTAR":4.4681e-5,"MEAN_MOTION_DOT":4.14e-6,"MEAN_MOTION_DDOT":0},{"OBJECT_NAME":"SL-14 R/B","OBJECT_ID":"1986-055B","EPOCH":"2026-04-11T11:41:36.239136","MEAN_MOTION":14.85673983,"ECCENTRICITY":0.001782,"INCLINATION":82.5169,"RA_OF_ASC_NODE":95.8359,"ARG_OF_PERICENTER":219.9576,"MEAN_ANOMALY":301.057,"EPHEMERIS_TYPE":0,"CLASSIFICATION_TYPE":"U","NORAD_CAT_ID":16882,"ELEMENT_SET_NO":999,"REV_AT_EPOCH":12423,"BSTAR":4.0558e-5,"MEAN_MOTION_DOT":3.76e-6,"MEAN_MOTION_DDOT":0},{"OBJECT_NAME":"AJISAI (EGS)","OBJECT_ID":"1986-061A","EPOCH":"2026-04-11T21:15:30.707712","MEAN_MOTION":12.44515752,"ECCENTRICITY":0.0011385,"INCLINATION":50.012,"RA_OF_ASC_NODE":351.272,"ARG_OF_PERICENTER":12.4051,"MEAN_ANOMALY":72.6774,"EPHEMERIS_TYPE":0,"CLASSIFICATION_TYPE":"U","NORAD_CAT_ID":16908,"ELEMENT_SET_NO":999,"REV_AT_EPOCH":47213,"BSTAR":9.4021e-5,"MEAN_MOTION_DOT":-8.4e-7,"MEAN_MOTION_DDOT":0},{"OBJECT_NAME":"SL-14 R/B","OBJECT_ID":"1987-024B","EPOCH":"2026-04-11T19:58:29.758368","MEAN_MOTION":14.86166443,"ECCENTRICITY":0.0019056,"INCLINATION":82.5275,"RA_OF_ASC_NODE":61.6065,"ARG_OF_PERICENTER":146.7755,"MEAN_ANOMALY":213.4662,"EPHEMERIS_TYPE":0,"CLASSIFICATION_TYPE":"U","NORAD_CAT_ID":17567,"ELEMENT_SET_NO":999,"REV_AT_EPOCH":9305,"BSTAR":4.1929e-5,"MEAN_MOTION_DOT":3.94e-6,"MEAN_MOTION_DDOT":0},{"OBJECT_NAME":"COSMOS 1833","OBJECT_ID":"1987-027A","EPOCH":"2026-04-11T20:21:41.927616","MEAN_MOTION":14.13040278,"ECCENTRICITY":0.0022678,"INCLINATION":70.9163,"RA_OF_ASC_NODE":256.3187,"ARG_OF_PERICENTER":164.2546,"MEAN_ANOMALY":195.9285,"EPHEMERIS_TYPE":0,"CLASSIFICATION_TYPE":"U","NORAD_CAT_ID":17589,"ELEMENT_SET_NO":999,"REV_AT_EPOCH":1500,"BSTAR":-0.00013509,"MEAN_MOTION_DOT":-3.01e-6,"MEAN_MOTION_DDOT":0},{"OBJECT_NAME":"SL-16 R/B","OBJECT_ID":"1987-027B","EPOCH":"2026-04-11T15:43:29.323200","MEAN_MOTION":14.17170194,"ECCENTRICITY":0.000294,"INCLINATION":71.0037,"RA_OF_ASC_NODE":207.0257,"ARG_OF_PERICENTER":56.6161,"MEAN_ANOMALY":303.5244,"EPHEMERIS_TYPE":0,"CLASSIFICATION_TYPE":"U","NORAD_CAT_ID":17590,"ELEMENT_SET_NO":999,"REV_AT_EPOCH":2001,"BSTAR":-5.9117e-5,"MEAN_MOTION_DOT":-1.67e-6,"MEAN_MOTION_DDOT":0},{"OBJECT_NAME":"SL-14 R/B","OBJECT_ID":"1987-038B","EPOCH":"2026-04-11T20:15:42.375744","MEAN_MOTION":14.85402018,"ECCENTRICITY":0.0020491,"INCLINATION":82.4985,"RA_OF_ASC_NODE":265.5639,"ARG_OF_PERICENTER":57.6173,"MEAN_ANOMALY":302.7022,"EPHEMERIS_TYPE":0,"CLASSIFICATION_TYPE":"U","NORAD_CAT_ID":17912,"ELEMENT_SET_NO":999,"REV_AT_EPOCH":8415,"BSTAR":3.9225e-5,"MEAN_MOTION_DOT":3.63e-6,"MEAN_MOTION_DDOT":0},{"OBJECT_NAME":"COSMOS 1844","OBJECT_ID":"1987-041A","EPOCH":"2026-04-11T20:21:17.428032","MEAN_MOTION":14.14564969,"ECCENTRICITY":0.0032105,"INCLINATION":70.9009,"RA_OF_ASC_NODE":324.2387,"ARG_OF_PERICENTER":329.0408,"MEAN_ANOMALY":30.882,"EPHEMERIS_TYPE":0,"CLASSIFICATION_TYPE":"U","NORAD_CAT_ID":17973,"ELEMENT_SET_NO":999,"REV_AT_EPOCH":827,"BSTAR":2.1914e-5,"MEAN_MOTION_DOT":-6.0e-8,"MEAN_MOTION_DDOT":0},{"OBJECT_NAME":"SL-14 R/B","OBJECT_ID":"1987-055B","EPOCH":"2026-04-11T21:10:57.925632","MEAN_MOTION":14.856615,"ECCENTRICITY":0.0019107,"INCLINATION":82.4983,"RA_OF_ASC_NODE":317.7476,"ARG_OF_PERICENTER":263.5212,"MEAN_ANOMALY":96.3828,"EPHEMERIS_TYPE":0,"CLASSIFICATION_TYPE":"U","NORAD_CAT_ID":18153,"ELEMENT_SET_NO":999,"REV_AT_EPOCH":7486,"BSTAR":3.2026e-5,"MEAN_MOTION_DOT":3.02e-6,"MEAN_MOTION_DDOT":0},{"OBJECT_NAME":"COSMOS 1867","OBJECT_ID":"1987-060A","EPOCH":"2026-04-11T16:41:14.517888","MEAN_MOTION":14.31508424,"ECCENTRICITY":0.0015098,"INCLINATION":65.0109,"RA_OF_ASC_NODE":214.2697,"ARG_OF_PERICENTER":280.4684,"MEAN_ANOMALY":79.4698,"EPHEMERIS_TYPE":0,"CLASSIFICATION_TYPE":"U","NORAD_CAT_ID":18187,"ELEMENT_SET_NO":999,"REV_AT_EPOCH":2466,"BSTAR":1.3552e-5,"MEAN_MOTION_DOT":-6.4e-7,"MEAN_MOTION_DDOT":0},{"OBJECT_NAME":"SL-14 R/B","OBJECT_ID":"1988-001B","EPOCH":"2026-04-11T14:39:37.485792","MEAN_MOTION":14.85563369,"ECCENTRICITY":0.0019348,"INCLINATION":82.5147,"RA_OF_ASC_NODE":164.4059,"ARG_OF_PERICENTER":126.8509,"MEAN_ANOMALY":233.4485,"EPHEMERIS_TYPE":0,"CLASSIFICATION_TYPE":"U","NORAD_CAT_ID":18749,"ELEMENT_SET_NO":999,"REV_AT_EPOCH":4691,"BSTAR":3.2352e-5,"MEAN_MOTION_DOT":3.05e-6,"MEAN_MOTION_DDOT":0},{"OBJECT_NAME":"COSMOS 1933","OBJECT_ID":"1988-020A","EPOCH":"2026-04-11T16:19:20.352288","MEAN_MOTION":15.18313817,"ECCENTRICITY":0.0005538,"INCLINATION":82.5139,"RA_OF_ASC_NODE":218.2648,"ARG_OF_PERICENTER":88.4641,"MEAN_ANOMALY":271.7228,"EPHEMERIS_TYPE":0,"CLASSIFICATION_TYPE":"U","NORAD_CAT_ID":18958,"ELEMENT_SET_NO":999,"REV_AT_EPOCH":5523,"BSTAR":0.00018177,"MEAN_MOTION_DOT":3.76e-5,"MEAN_MOTION_DDOT":0},{"OBJECT_NAME":"SL-3 R/B","OBJECT_ID":"1988-032B","EPOCH":"2026-04-11T20:14:56.816160","MEAN_MOTION":15.20287547,"ECCENTRICITY":0.0027517,"INCLINATION":97.5227,"RA_OF_ASC_NODE":84.996,"ARG_OF_PERICENTER":116.6823,"MEAN_ANOMALY":243.7234,"EPHEMERIS_TYPE":0,"CLASSIFICATION_TYPE":"U","NORAD_CAT_ID":19046,"ELEMENT_SET_NO":999,"REV_AT_EPOCH":5714,"BSTAR":0.00018418,"MEAN_MOTION_DOT":3.968e-5,"MEAN_MOTION_DDOT":0},{"OBJECT_NAME":"SL-16 R/B","OBJECT_ID":"1988-039B","EPOCH":"2026-04-11T11:07:29.671104","MEAN_MOTION":14.19621824,"ECCENTRICITY":0.0023984,"INCLINATION":71.0174,"RA_OF_ASC_NODE":359.2489,"ARG_OF_PERICENTER":287.8124,"MEAN_ANOMALY":72.0385,"EPHEMERIS_TYPE":0,"CLASSIFICATION_TYPE":"U","NORAD_CAT_ID":19120,"ELEMENT_SET_NO":999,"REV_AT_EPOCH":96303,"BSTAR":9.8651e-5,"MEAN_MOTION_DOT":1.61e-6,"MEAN_MOTION_DDOT":0},{"OBJECT_NAME":"COSMOS 1953","OBJECT_ID":"1988-050A","EPOCH":"2026-04-11T19:26:58.209216","MEAN_MOTION":15.29059442,"ECCENTRICITY":0.0011083,"INCLINATION":82.506,"RA_OF_ASC_NODE":124.9187,"ARG_OF_PERICENTER":17.848,"MEAN_ANOMALY":342.3147,"EPHEMERIS_TYPE":0,"CLASSIFICATION_TYPE":"U","NORAD_CAT_ID":19210,"ELEMENT_SET_NO":999,"REV_AT_EPOCH":4284,"BSTAR":0.00024067,"MEAN_MOTION_DOT":6.833e-5,"MEAN_MOTION_DDOT":0}]
