SL-14 R/B               
1 16496U 86006B   26101.76596002  .00000742  00000+0  75825-4 0  9994
2 16496  82.5276 228.6039 0076968 162.0121 198.3849 14.86875871154127
COSMOS 1743             
1 16719U 86034A   26101.86933875  .00035244  00000+0  40816-3 0  9993
2 16719  82.5305  38.9322 0006650 136.1873 223.9913 15.61634030185420
SL-14 R/B               
1 16792U 86046B   26101.60888402  .00000414  00000+0  44681-4 0  9990
2 16792  82.4828  49.0736 0024495 117.4106 242.9606 14.85625403131295
SL-14 R/B               
1 16882U 86055B   26101.48722499  .00000376  00000+0  40558-4 0  9995
2 16882  82.5169  95.8359 0017820 219.9576 301.0570 14.85673983124236
AJISAI (EGS)            
1 16908U 86061A   26101.88577208 -.00000084  00000+0  94021-4 0  9992
2 16908  50.0120 351.2720 0011385  12.4051  72.6774 12.44515752472131
SL-14 R/B               
1 17567U 87024B   26101.83228887  .00000394  00000+0  41929-4 0  9997
2 17567  82.5275  61.6065 0019056 146.7755 213.4662 14.86166443 93051
COSMOS 1833             
1 17589U 87027A   26101.84840194 -.00000301  00000+0 -13509-3 0  9998
2 17589  70.9163 256.3187 0022678 164.2546 195.9285 14.13040278 15008
SL-16 R/B               
1 17590U 87027B   26101.65520050 -.00000167  00000+0 -59117-4 0  9991
2 17590  71.0037 207.0257 0002940  56.6161 303.5244 14.17170194 20014
SL-14 R/B               
1 17912U 87038B   26101.84424046  .00000363  00000+0  39225-4 0  9994
2 17912  82.4985 265.5639 0020491  57.6173 302.7022 14.85402018 84156
COSMOS 1844             
1 17973U 87041A   26101.84811838 -.00000006  00000+0  21914-4 0  9995
2 17973  70.9009 324.2387 0032105 329.0408  30.8820 14.14564969  8277
SL-14 R/B               
1 18153U 87055B   26101.88261488  .00000302  00000+0  32026-4 0  9999
2 18153  82.4983 317.7476 0019107 263.5212  96.3828 14.85661500 74865
COSMOS 1867             
1 18187U 87060A   26101.69530692 -.00000064  00000+0  13552-4 0  9996
2 18187  65.0109 214.2697 0015098 280.4684  79.4698 14.31508424 24667
SL-14 R/B               
1 18749U 88001B   26101.61085053  .00000305  00000+0  32352-4 0  9990
2 18749  82.5147 164.4059 0019348 126.8509 233.4485 14.85563369 46912
COSMOS 1933             
1 18958U 88020A   26101.68009667  .00003760  00000+0  18177-3 0  9993
2 18958  82.5139 218.2648 0005538  88.4641 271.7228 15.18313817 55236
SL-3 R/B                
1 19046U 88032B   26101.84371315  .00003968  00000+0  18418-3 0  9993
2 19046  97.5227  84.9960 0027517 116.6823 243.7234 15.20287547 57142
SL-16 R/B               
1 19120U 88039B   26101.46353786  .00000161  00000+0  98651-4 0  9993
2 19120  71.0174 359.2489 0023984 287.8124  72.0385 14.19621824963037
COSMOS 1953             
1 19210U 88050A   26101.81039594  .00006833  00000+0  24067-3 0  9994
2 19210  82.5060 124.9187 0011083  17.8480 342.3147 15.29059442 42842
